OBJECT_NAME,OBJECT_ID,EPOCH,MEAN_MOTION,ECCENTRICITY,INCLINATION,RA_OF_ASC_NODE,ARG_OF_PERICENTER,MEAN_ANOMALY,EPHEMERIS_TYPE,CLASSIFICATION_TYPE,NORAD_CAT_ID,ELEMENT_SET_NO,REV_AT_EPOCH,BSTAR,MEAN_MOTION_DOT,MEAN_MOTION_DDOT
GLOBAL-19,2023-041B,2026-06-10T22:18:08.513280,15.37882196,.0009826,42.0014,238.3748,320.6431,39.3693,0,U,55982,999,18096,.32468E-3,.12136E-3,0
BRO-9,2023-054H,2026-06-09T13:49:35.827968,15.97039346,.00065776,97.2949,78.4371,143.5914,216.5811,0,U,56185,999,17787,.10888484E-2,.467986E-2,.92684865E-4
ION SCV-010,2023-054Q,2026-06-11T15:39:32.408352,15.26149937,.0011619,97.3796,52.2243,217.8494,142.1929,0,U,56192,999,17535,.17139E-3,.4361E-4,0
TELEOS-2,2023-057C,2026-06-11T14:58:38.080704,14.96372343,.0000561,9.9880,244.6901,253.2551,106.7601,0,U,56310,999,17196,.18882E-6,.69E-5,0
SNIPE 4,2023-072B,2026-06-11T18:19:55.825248,15.42133543,.0004913,97.5260,8.5984,0.6735,359.4518,0,U,56744,999,16927,.45943E-3,.19613E-3,0
SNIPE 2,2023-072C,2026-06-11T18:11:01.246848,15.46579593,.0004764,97.5252,11.5985,33.7757,326.3795,0,U,56745,999,16940,.43492E-3,.21586E-3,0
2023-072G,2023-072G,2026-06-11T16:57:24.191136,15.50261882,.0003438,97.4916,10.3422,26.6616,333.4811,0,U,56749,999,16961,.47674E-3,.26926E-3,0
GEISAT PRECURSOR,2023-084C,2026-06-11T16:14:07.247328,15.34577016,.0005482,97.6211,303.4489,18.6804,341.4639,0,U,56934,999,16668,.20702E-3,.6853E-4,0
BLACKJACK ACES-3,2023-084U,2026-06-11T15:13:53.632128,15.18416580,.0002996,97.6199,297.7841,50.8178,309.3321,0,U,56950,999,16632,.24323E-3,.4935E-4,0
BLACKJACK ACES-2,2023-084Z,2026-06-11T09:03:27.640800,15.18539589,.0001479,97.6195,297.6095,68.9604,291.1788,0,U,56955,999,16629,.28361E-3,.5787E-4,0
BLACKJACK ACES-1,2023-084AA,2026-06-11T15:05:56.489856,15.18534514,.0001272,97.6186,297.6370,99.2734,260.8644,0,U,56956,999,11605,.30331E-3,.6193E-4,0
ION SCV-011,2023-084AB,2026-06-11T12:04:13.992672,15.28791462,.0008285,98.1380,349.2563,62.9747,297.2335,0,U,56957,999,16494,.17692E-3,.4867E-4,0
GHOST-3,2023-084AC,2026-06-11T16:02:16.316160,15.47701551,.000567,97.6203,310.9454,317.1876,42.8931,0,U,56958,999,16716,.30729E-3,.15816E-3,0
TOMORROW-R2,2023-084AG,2026-06-11T10:27:43.112160,16.03095104,.000767,97.6025,325.8419,243.9949,116.0540,0,U,56962,999,16813,.61636E-3,.373974E-2,.64182E-4
AFR-1,2023-084AJ,2026-06-11T16:01:45.626016,15.28509221,.0010452,97.6261,299.2266,6.8871,353.2510,0,U,56964,999,16638,.15558E-3,.4242E-4,0
METEOR-M2 3,2023-091A,2026-06-11T16:31:06.832128,14.24046333,.0004045,98.6091,217.7789,169.7532,190.3730,0,U,57166,999,15373,.16968E-4,-.4E-7,0
UMKA 1 (RS40S),2023-091G,2026-06-11T16:45:53.138016,15.20754474,.0014017,97.5058,221.4167,134.8199,225.4178,0,U,57172,999,16317,.2709E-3,.5909E-4,0
2023-091H,2023-091H,2026-06-11T16:25:09.811776,15.28515595,.0011165,97.5056,225.8317,129.8126,230.4098,0,U,57173,999,16346,.39038E-3,.1078E-3,0
2023-091J,2023-091J,2026-06-11T16:51:28.376928,15.13887644,.0013863,97.5061,215.8769,160.7674,199.4083,0,U,57174,999,16280,.20856E-3,.3716E-4,0
CUBEBEL 2 (EU11S),2023-091K,2026-06-11T16:29:02.855904,15.29017089,.0011188,97.5060,225.8548,131.3856,228.8348,0,U,57175,999,16346,.41277E-3,.1158E-3,0
SITRO-AIS 5 (KATYS),2023-091L,2026-06-11T15:20:54.248928,15.29328443,.0012774,97.5068,226.4862,120.5417,239.7085,0,U,57176,999,16349,.40118E-3,.11367E-3,0
ZORKIY-2M 1,2023-091M,2026-06-11T16:26:42.696096,15.20831187,.0014595,97.5098,221.6679,132.3406,227.9068,0,U,57177,999,16316,.28946E-3,.6335E-4,0
CUBESX-HSE 3 (RS42S),2023-091N,2026-06-11T14:51:11.443680,15.31072798,.001214,97.5100,228.1359,111.7791,248.4743,0,U,57178,999,16357,.41588E-3,.1244E-3,0
MONITOR-3 (RS58S),2023-091Q,2026-06-11T16:43:09.289920,15.27730668,.0013114,97.5092,226.1025,117.6783,242.5789,0,U,57180,999,16345,.35845E-3,.9662E-4,0
MONITOR-4 (RS57S),2023-091S,2026-06-11T16:13:26.500224,15.27819989,.0013088,97.5085,226.0526,118.0614,242.1951,0,U,57182,999,16345,.33733E-3,.9113E-4,0
MONITOR-2 (RS39S),2023-091U,2026-06-11T15:31:44.217120,15.18858511,.0012556,97.5079,220.9656,128.0154,232.2216,0,U,57184,999,16311,.23583E-3,.4855E-4,0
SVYATOBOR 1 (RS60S),2023-091X,2026-06-11T14:51:07.481376,15.26519253,.0010916,97.5097,226.4049,111.0802,249.1605,0,U,57187,999,16346,.31225E-3,.8095E-4,0
HORS 1,2023-091Y,2026-06-11T16:05:14.344224,15.26624140,.0010375,97.5075,226.2199,110.6103,249.6249,0,U,57188,999,16347,.33004E-3,.8587E-4,0
VIZARD-METEO (RS38S),2023-091Z,2026-06-11T16:12:11.548224,15.35849394,.0008561,97.5099,232.0501,94.1877,266.0344,0,U,57189,999,16384,.45741E-3,.15906E-3,0
SITRO-AIS 6 (CHIRKIN),2023-091AC,2026-06-11T16:06:38.937600,15.25828927,.0013063,97.5076,225.6666,123.4610,236.7879,0,U,57192,999,16344,.36771E-3,.9357E-4,0
