GLOBAL-19               
1 55982U 23041B   26161.92926520  .00012136  00000+0  32468-3 0  9998
2 55982  42.0014 238.3748 0009826 320.6431  39.3693 15.37882196180968
BRO-9                   
1 56185U 23054H   26160.57610912  .00467986  92685-4  10888-2 0  9996
2 56185  97.2949  78.4371 0006577 143.5914 216.5811 15.97039346177870
ION SCV-010             
1 56192U 23054Q   26162.65245843  .00004361  00000+0  17139-3 0  9998
2 56192  97.3796  52.2243 0011619 217.8494 142.1929 15.26149937175353
TELEOS-2                
1 56310U 23057C   26162.62405186  .00000690  00000+0  18882-6 0  9998
2 56310   9.9880 244.6901 0000561 253.2551 106.7601 14.96372343171969
SNIPE 4                 
1 56744U 23072B   26162.76384057  .00019613  00000+0  45943-3 0  9994
2 56744  97.5260   8.5984 0004913   0.6735 359.4518 15.42133543169270
SNIPE 2                 
1 56745U 23072C   26162.75765332  .00021586  00000+0  43492-3 0  9992
2 56745  97.5252  11.5985 0004764  33.7757 326.3795 15.46579593169400
2023-072G               
1 56749U 23072G   26162.70652999  .00026926  00000+0  47674-3 0  9994
2 56749  97.4916  10.3422 0003438  26.6616 333.4811 15.50261882169610
GEISAT PRECURSOR        
1 56934U 23084C   26162.67647277  .00006853  00000+0  20702-3 0  9992
2 56934  97.6211 303.4489 0005482  18.6804 341.4639 15.34577016166688
BLACKJACK ACES-3        
1 56950U 23084U   26162.63464852  .00004935  00000+0  24323-3 0  9994
2 56950  97.6199 297.7841 0002996  50.8178 309.3321 15.18416580166329
BLACKJACK ACES-2        
1 56955U 23084Z   26162.37740325  .00005787  00000+0  28361-3 0  9994
2 56955  97.6195 297.6095 0001479  68.9604 291.1788 15.18539589166295
BLACKJACK ACES-1        
1 56956U 23084AA  26162.62912604  .00006193  00000+0  30331-3 0  9996
2 56956  97.6186 297.6370 0001272  99.2734 260.8644 15.18534514116050
ION SCV-011             
1 56957U 23084AB  26162.50293973  .00004867  00000+0  17692-3 0  9996
2 56957  98.1380 349.2563 0008285  62.9747 297.2335 15.28791462164943
GHOST-3                 
1 56958U 23084AC  26162.66824440  .00015816  00000+0  30729-3 0  9995
2 56958  97.6203 310.9454 0005670 317.1876  42.8931 15.47701551167163
TOMORROW-R2             
1 56962U 23084AG  26162.43591565  .00373974  64182-4  61636-3 0  9993
2 56962  97.6025 325.8419 0007670 243.9949 116.0540 16.03095104168136
AFR-1                   
1 56964U 23084AJ  26162.66788919  .00004242  00000+0  15558-3 0  9996
2 56964  97.6261 299.2266 0010452   6.8871 353.2510 15.28509221166389
METEOR-M2 3             
1 57166U 23091A   26162.68827352 -.00000004  00000+0  16968-4 0  9996
2 57166  98.6091 217.7789 0004045 169.7532 190.3730 14.24046333153739
UMKA 1 (RS40S)          
1 57172U 23091G   26162.69853169  .00005909  00000+0  27090-3 0  9994
2 57172  97.5058 221.4167 0014017 134.8199 225.4178 15.20754474163175
2023-091H               
1 57173U 23091H   26162.68414134  .00010780  00000+0  39038-3 0  9997
2 57173  97.5056 225.8317 0011165 129.8126 230.4098 15.28515595163460
2023-091J               
1 57174U 23091J   26162.70241177  .00003716  00000+0  20856-3 0  9995
2 57174  97.5061 215.8769 0013863 160.7674 199.4083 15.13887644162802
CUBEBEL 2 (EU11S)       
1 57175U 23091K   26162.68683861  .00011580  00000+0  41277-3 0  9991
2 57175  97.5060 225.8548 0011188 131.3856 228.8348 15.29017089163461
SITRO-AIS 5 (KATYS)     
1 57176U 23091L   26162.63951677  .00011367  00000+0  40118-3 0  9996
2 57176  97.5068 226.4862 0012774 120.5417 239.7085 15.29328443163492
ZORKIY-2M 1             
1 57177U 23091M   26162.68521639  .00006335  00000+0  28946-3 0  9997
2 57177  97.5098 221.6679 0014595 132.3406 227.9068 15.20831187163160
CUBESX-HSE 3 (RS42S)    
1 57178U 23091N   26162.61888245  .00012440  00000+0  41588-3 0  9991
2 57178  97.5100 228.1359 0012140 111.7791 248.4743 15.31072798163574
MONITOR-3 (RS58S)       
1 57180U 23091Q   26162.69663530  .00009662  00000+0  35845-3 0  9991
2 57180  97.5092 226.1025 0013114 117.6783 242.5789 15.27730668163457
MONITOR-4 (RS57S)       
1 57182U 23091S   26162.67600116  .00009113  00000+0  33733-3 0  9997
2 57182  97.5085 226.0526 0013088 118.0614 242.1951 15.27819989163455
MONITOR-2 (RS39S)       
1 57184U 23091U   26162.64703955  .00004855  00000+0  23583-3 0  9991
2 57184  97.5079 220.9656 0012556 128.0154 232.2216 15.18858511163117
SVYATOBOR 1 (RS60S)     
1 57187U 23091X   26162.61883659  .00008095  00000+0  31225-3 0  9993
2 57187  97.5097 226.4049 0010916 111.0802 249.1605 15.26519253163460
HORS 1                  
1 57188U 23091Y   26162.67030491  .00008587  00000+0  33004-3 0  9991
2 57188  97.5075 226.2199 0010375 110.6103 249.6249 15.26624140163471
VIZARD-METEO (RS38S)    
1 57189U 23091Z   26162.67513366  .00015906  00000+0  45741-3 0  9993
2 57189  97.5099 232.0501 0008561  94.1877 266.0344 15.35849394163848
SITRO-AIS 6 (CHIRKIN)   
1 57192U 23091AC  26162.67128400  .00009357  00000+0  36771-3 0  9994
2 57192  97.5076 225.6666 0013063 123.4610 236.7879 15.25828927163442
